INTELSAT 23 (IS-23)     
1 38867U 12057A   26193.44387572 -.00000283  00000+0  00000+0 0  9990
2 38867   0.0074  53.5558 0000294 138.9663 204.6019  1.00274365 50204
FM-6                    
1 39360U 13058A   26193.42544781 -.00000014  00000+0  00000+0 0  9998
2 39360   0.0194  51.3125 0001327 126.4984 149.3105  1.00271280 46320
INTELSAT 30 (IS-30)     
1 40271U 14062A   26193.30183786 -.00000149  00000+0  00000+0 0  9997
2 40271   0.0189  51.0892 0001384 330.8813 281.8416  1.00271349  7049
DIRECTV 14              
1 40333U 14078B   26193.47201999 -.00000124  00000+0  00000+0 0  9991
2 40333   0.0128  44.0492 0000280 262.0971  54.8974  1.00269943 42294
DIRECTV 15              
1 40663U 15026A   26193.49975280 -.00000102  00000+0  00000+0 0  9990
2 40663   0.0179  70.6567 0000075 359.2395 297.5374  1.00274705 40712
SKY MEXICO-1            
1 40664U 15026B   26193.47609334 -.00000233  00000+0  00000+0 0  9998
2 40664   0.0166  13.4085 0002315 121.4671 248.0863  1.00270756 40709
INTELSAT 34 (IS-34)     
1 40874U 15039A   26193.48068670 -.00000284  00000+0  00000+0 0  9994
2 40874   0.0099 348.3703 0000608   3.5648  55.9948  1.00269556 39883
INTELSAT 31 (IS-31)     
1 41581U 16035A   26193.30183786 -.00000149  00000+0  00000+0 0  9994
2 41581   0.0139 293.5613 0001125 346.8201  23.4277  1.00271417 36935
INTELSAT 36 (IS-36)     
1 41747U 16053A   26193.51311074 -.00000023  00000+0  00000+0 0  9995
2 41747   0.0104   9.2125 0002526 331.7832 202.6152  1.00269877 36211
INTELSAT 32E (IS-32E)   
1 41945U 17007B   26193.48311338  .00000000  00000+0  00000+0 0  9998
2 41945   0.0248  39.7763 0000624 296.0341  85.3133  1.00266553 34470
INTELSAT 35E (IS-35E)   
1 42818U 17041A   26193.48484672 -.00000237  00000+0  00000+0 0  9991
2 42818   0.0174  42.2312 0001574  68.1142 320.0780  1.00269882 33068
INTELSAT 37E (IS-37E)   
1 42950U 17059A   26193.41683747 -.00000140  00000+0  00000+0 0  9997
2 42950   0.0136  69.2323 0002476  49.5297 303.6058  1.00270494 32313
AZERSPACE 2 (IS-38)     
1 43632U 18074A   26193.50062013  .00000000  00000+0  00000+0 0  9994
2 43632   0.0247  34.5588 0001232  90.0465  31.1318  1.00269191 28701
HORIZONS-3E             
1 43633U 18074B   26193.59141994 -.00000031  00000+0  00000+0 0  9995
2 43633   0.0466 220.6601 0001067  52.1468  39.5820  1.00267613 28591
AT&T T-16               
1 44333U 19034A   26193.47167332 -.00000114  00000+0  00000+0 0  9993
2 44333   0.0149  55.4074 0000741 277.6868  26.2179  1.00273054 25886
INTELSAT 39 (IS-39)     
1 44476U 19049B   26193.50391348  .00000034  00000+0  00000+0 0  9997
2 44476   0.0161   3.5296 0000953 317.5606 212.6611  1.00270855 25380
GALAXY 30 (G-30)        
1 46114U 20056C   26193.44350079  .00000038  00000+0  00000+0 0  9991
2 46114   0.0038  98.3783 0001947  16.1890 210.4202  1.00270957 21547
GALAXY 33 (G-33)        
1 54026U 22128A   26193.52891979  .00000080  00000+0  00000+0 0  9999
2 54026   0.0056  39.7853 0001753  79.8928 228.1495  1.00271214 13995
GALAXY 34 (G-34)        
1 54027U 22128B   26193.46612662  .00000000  00000+0  00000+0 0  9995
2 54027   0.0236  14.4132 0001411 108.1241 206.6250  1.00273746 14163
GALAXY 31 (G-31)        
1 54243U 22153A   26193.46768663  .00000000  00000+0  00000+0 0  9996
2 54243   0.0264  61.3748 0000937  57.9868 218.3598  1.00270076  7380
GALAXY 32 (G-32)        
1 54244U 22153B   26193.40236406 -.00000173  00000+0  00000+0 0  9998
2 54244   0.0126  12.3463 0001466  34.0044 297.7941  1.00270350 13394
GALAXY 35 (G-35)        
1 54741U 22170A   26193.47323333  .00000000  00000+0  00000+0 0  9990
2 54741   0.0227  55.5143 0001878  61.2135 250.8994  1.00269057 13145
GALAXY 36 (G-36)        
1 54742U 22170B   26193.47401333 -.00000184  00000+0  00000+0 0  9992
2 54742   0.0293 109.9014 0002349 350.0081 272.1028  1.00270995 13028
GALAXY 37 (G-37)        
1 57493U 23112A   26193.50530909  .00000049  00000+0  00000+0 0  9990
2 57493   0.0175  69.1658 0001737  47.5997 228.5358  1.00270887 10790
