OBJECT_NAME,OBJECT_ID,EPOCH,MEAN_MOTION,ECCENTRICITY,INCLINATION,RA_OF_ASC_NODE,ARG_OF_PERICENTER,MEAN_ANOMALY,EPHEMERIS_TYPE,CLASSIFICATION_TYPE,NORAD_CAT_ID,ELEMENT_SET_NO,REV_AT_EPOCH,BSTAR,MEAN_MOTION_DOT,MEAN_MOTION_DDOT
INTELSAT 23 (IS-23),2012-057A,2026-07-12T10:39:10.862208,1.00274365,.00002947,0.0074,53.5558,138.9663,204.6019,0,U,38867,999,5020,0,-.283E-5,0
FM-6,2013-058A,2026-07-12T10:12:38.690784,1.00271280,.00013278,0.0194,51.3125,126.4984,149.3105,0,U,39360,999,4632,0,-.14E-6,0
INTELSAT 30 (IS-30),2014-062A,2026-07-12T07:14:38.791104,1.00271349,.0001384,0.0189,51.0892,330.8813,281.8416,0,U,40271,999,704,0,-.149E-5,0
DIRECTV 14,2014-078B,2026-07-12T11:19:42.527136,1.00269943,.00002803,0.0128,44.0492,262.0971,54.8974,0,U,40333,999,4229,0,-.124E-5,0
DIRECTV 15,2015-026A,2026-07-12T11:59:38.641920,1.00274705,.00000752,0.0179,70.6567,359.2395,297.5374,0,U,40663,999,4071,0,-.102E-5,0
SKY MEXICO-1,2015-026B,2026-07-12T11:25:34.464576,1.00270756,.00023157,0.0166,13.4085,121.4671,248.0863,0,U,40664,999,4070,0,-.233E-5,0
INTELSAT 34 (IS-34),2015-039A,2026-07-12T11:32:11.330880,1.00269556,.00006084,0.0099,348.3703,3.5648,55.9948,0,U,40874,999,3988,0,-.284E-5,0
INTELSAT 31 (IS-31),2016-035A,2026-07-12T07:14:38.791104,1.00271417,.00011251,0.0139,293.5613,346.8201,23.4277,0,U,41581,999,3693,0,-.149E-5,0
INTELSAT 36 (IS-36),2016-053A,2026-07-12T12:18:52.767936,1.00269877,.00025262,0.0104,9.2125,331.7832,202.6152,0,U,41747,999,3621,0,-.23E-6,0
INTELSAT 32E (IS-32E),2017-007B,2026-07-12T11:35:40.996032,1.00266553,.00006241,0.0248,39.7763,296.0341,85.3133,0,U,41945,999,3447,0,0,0
INTELSAT 35E (IS-35E),2017-041A,2026-07-12T11:38:10.756608,1.00269882,.00015743,0.0174,42.2312,68.1142,320.0780,0,U,42818,999,3306,0,-.237E-5,0
INTELSAT 37E (IS-37E),2017-059A,2026-07-12T10:00:14.757408,1.00270494,.00024764,0.0136,69.2323,49.5297,303.6058,0,U,42950,999,3231,0,-.14E-5,0
AZERSPACE 2 (IS-38),2018-074A,2026-07-12T12:00:53.579232,1.00269191,.00012324,0.0247,34.5588,90.0465,31.1318,0,U,43632,999,2870,0,0,0
HORIZONS-3E,2018-074B,2026-07-12T14:11:38.682816,1.00267613,.00010671,0.0466,220.6601,52.1468,39.5820,0,U,43633,999,2859,0,-.31E-6,0
AT&T T-16,2019-034A,2026-07-12T11:19:12.574848,1.00273054,.00007414,0.0149,55.4074,277.6868,26.2179,0,U,44333,999,2588,0,-.114E-5,0
INTELSAT 39 (IS-39),2019-049B,2026-07-12T12:05:38.124672,1.00270855,.00009531,0.0161,3.5296,317.5606,212.6611,0,U,44476,999,2538,0,.34E-6,0
GALAXY 30 (G-30),2020-056C,2026-07-12T10:38:38.468256,1.00270957,.00019473,0.0038,98.3783,16.1890,210.4202,0,U,46114,999,2154,0,.38E-6,0
GALAXY 33 (G-33),2022-128A,2026-07-12T12:41:38.669856,1.00271214,.00017538,0.0056,39.7853,79.8928,228.1495,0,U,54026,999,1399,0,.8E-6,0
GALAXY 34 (G-34),2022-128B,2026-07-12T11:11:13.339968,1.00273746,.00014114,0.0236,14.4132,108.1241,206.6250,0,U,54027,999,1416,0,0,0
GALAXY 31 (G-31),2022-153A,2026-07-12T11:13:28.124832,1.00270076,.00009373,0.0264,61.3748,57.9868,218.3598,0,U,54243,999,738,0,0,0
GALAXY 32 (G-32),2022-153B,2026-07-12T09:39:24.254784,1.00270350,.00014664,0.0126,12.3463,34.0044,297.7941,0,U,54244,999,1339,0,-.173E-5,0
GALAXY 35 (G-35),2022-170A,2026-07-12T11:21:27.359712,1.00269057,.00018789,0.0227,55.5143,61.2135,250.8994,0,U,54741,999,1314,0,0,0
GALAXY 36 (G-36),2022-170B,2026-07-12T11:22:34.751712,1.00270995,.00023492,0.0293,109.9014,350.0081,272.1028,0,U,54742,999,1302,0,-.184E-5,0
GALAXY 37 (G-37),2023-112A,2026-07-12T12:07:38.705376,1.00270887,.00017377,0.0175,69.1658,47.5997,228.5358,0,U,57493,999,1079,0,.49E-6,0
